FOX-1CLIFF (AO-95)      
1 43770U 18099N   23217.11959426  .00006832  00000+0  54742-3 0  9993
2 43770  97.5710 277.3363 0013911 349.8704  10.2237 15.00376791254941
RANGE-A                 
1 43772U 18099Q   23217.73180033  .00009434  00000+0  71886-3 0  9992
2 43772  97.5677 280.8472 0006021 273.7745  86.2791 15.02250290255103
RANGE-B                 
1 43773U 18099R   23217.14250250  .00003567  00000+0  29988-3 0  9994
2 43773  97.5600 275.2948 0011969 317.3943  42.6351 14.98851488254891
2018-099T               
1 43775U 18099T   23217.12139056  .00004269  00000+0  36184-3 0  9990
2 43775  97.5696 276.8099 0011973 325.5261  34.5184 14.98428480254886
MOVE-II                 
1 43780U 18099Y   23217.39599523  .00014528  00000+0  10333-2 0  9990
2 43780  97.5672 280.4043 0008063 352.4259   7.6844 15.04734137255138
SNUSAT-2                
1 43782U 18099AA  23217.68841007  .00005440  00000+0  43904-3 0  9995
2 43782  97.5661 278.4156 0012077 290.6126  69.3802 15.00209179255055
SNUGLITE                
1 43784U 18099AC  23217.41912775  .00006084  00000+0  48323-3 0  9994
2 43784  97.5575 277.8279 0005625 304.4630  55.6062 15.00817337255052
ITASAT 1                
1 43786U 18099AE  23217.13344771  .00005419  00000+0  43973-3 0  9997
2 43786  97.5768 278.3878 0013755 332.2769  27.7720 14.99980559254980
KAZSCISAT-1             
1 43787U 18099AF  23217.70207678  .00011155  00000+0  80525-3 0  9993
2 43787  97.5535 278.9585 0006335 326.6972  33.3854 15.04251639255218
EAGLET-I                
1 43790U 18099AJ  23217.12336957  .00004797  00000+0  39561-3 0  9994
2 43790  97.5722 278.8059 0010216 332.4049  27.6631 14.99446412254719
ESEO                    
1 43792U 18099AL  23217.73246238  .00002484  00000+0  21571-3 0  9998
2 43792  97.5673 277.7228 0011492 326.1235  33.9253 14.97863910254800
CSIM-FD                 
1 43793U 18099AM  23217.14465988  .00011100  00000+0  78139-3 0  9996
2 43793  97.5719 281.5459 0014370 323.1902  36.8337 15.05131187254941
ASTROCAST 0.1           
1 43798U 18099AS  23216.87196703  .00009685  00000+0  71352-3 0  9991
2 43798  97.5788 280.5617 0011699 301.3262  58.6818 15.03484417255082
JY1SAT (JO-97)          
1 43803U 18099AX  23217.70834222  .00007330  00000+0  57087-3 0  9990
2 43803  97.5722 279.0371 0012528 298.2515  61.7445 15.01454279255121
SUOMI-100               
1 43804U 18099AY  23216.71696371  .00006275  00000+0  49342-3 0  9994
2 43804  97.5722 277.8302 0018527 314.1936  45.7765 15.01068654254979
AL-FARABI 2             
1 43805U 18099AZ  23217.73292475  .00010010  00000+0  74751-3 0  9999
2 43805  97.5550 279.9242 0011790 294.4467  65.5528 15.02961620255197
CENTAURI-1              
1 43809U 18099BD  23217.73480747  .00004885  00000+0  39882-3 0  9993
2 43809  97.5731 278.8087 0013432 328.8794  31.1632 14.99796149254794
CHOMPTT                 
1 43855U 18104G   23217.24555405  .00037961  00000+0  85677-3 0  9995
2 43855  85.0300 132.7244 0014535 123.5226 236.7419 15.42938417258130
UWE-4                   
1 43880U 18111E   23216.70673992  .00006202  00000+0  46598-3 0  9996
2 43880  97.6269 121.1444 0019109  13.6028 346.5708 15.02800626249650
ZACUBE-2                
1 43907U 18111AH  23217.72050767  .00037523  00000+0  83842-3 0  9991
2 43907  97.1298  96.2260 0015059  43.0820 317.1604 15.43302364256784
MICRODRAGON             
1 43935U 19003D   23217.01165083  .00021535  00000+0  60974-3 0  9990
2 43935  97.1016 234.8254 0015545 131.1679 229.0909 15.36177026252925
FORMOSAT 7-4            
1 44350U 19036M   23217.73388705  .00008665  00000+0  49627-3 0  9996
2 44350  23.9995  47.9482 0000652  61.7228 298.3342 15.10143243226261
METEOR-M2 2             
1 44387U 19038A   23217.78538308  .00000079  00000+0  53970-4 0  9997
2 44387  98.7790 181.5981 0002011 122.6945 237.4428 14.23796379212369
VDNH-80                 
1 44392U 19038G   23217.78308555  .00030163  00000+0  97821-3 0  9991
2 44392  97.6752 200.7131 0016990 123.7319 236.5543 15.31791275225890
D-STAR ONE (LIGHTSAT)   
1 44393U 19038H   23217.44859855  .00035127  00000+0  11094-2 0  9991
2 44393  97.6756 200.5047 0016995 124.3710 235.9141 15.32607274226058
AMGU-1 (AMURSAT)        
1 44394U 19038J   23217.41418471  .00040826  00000+0  12070-2 0  9991
2 44394  97.6729 200.8852 0016349 123.2973 236.9837 15.34680818226081
DOT-1                   
1 44399U 19038P   23216.67578920  .00013575  00000+0  55604-3 0  9991
2 44399  97.6855 196.0868 0020706 141.8147 218.4561 15.24222204225662
SOKRAT                  
1 44404U 19038U   23217.43413745  .00041089  00000+0  12357-2 0  9994
2 44404  97.6742 200.3748 0016801 124.6715 235.6113 15.34132360226053
LUCKY-7                 
1 44406U 19038W   23216.74567593  .00015059  00000+0  59437-3 0  9999
2 44406  97.6834 196.9128 0020497 132.7357 227.5609 15.25442943225721
D-STAR ONE (EXOCONNECT) 
1 44410U 19038AA  23217.51024070  .00143852  00000+0  19135-2 0  9991
2 44410  97.6607 206.2816 0013708 113.2462 247.0238 15.57578021226482
NARSSCUBE-2             
1 44415U 19022E   23217.13637426  .00033416  00000+0  55721-3 0  9998
2 44415  51.6322 255.7954 0008148 110.2988 249.8878 15.51631726223905
DUCHIFAT-3              
1 44854U 19089C   23217.18230280  .00011585  00000+0  76102-3 0  9999
2 44854  36.9612 158.2956 0008367 343.5288  16.5183 15.07054171200228
OPS-SAT                 
1 44878U 19092F   23217.51645758  .00028747  00000+0  79470-3 0  9995
2 44878  97.4742  46.9837 0007341 322.4532  37.6199 15.36967689201366
FLORIPASAT-1            
1 44885U 19093G   23217.77259244  .00005301  00000+0  60884-3 0  9993
2 44885  97.8667 298.3948 0012129 277.2940  82.6896 14.86200255196315
BY70-2                  
1 45857U 20042B   23217.79165052  .00024954  00000+0  24330-2 0  9994
2 45857  97.9242 297.9244 0009452 194.2637 165.8316 14.92405843166938
SALSAT                  
1 46495U 20068K   23217.42345209  .00006320  00000+0  41178-3 0  9992
2 46495  97.7716 165.9691 0014007 317.6711  42.3435 15.08209800156491
NETSAT-4                
1 46504U 20068U   23217.74779755  .00008660  00000+0  56234-3 0  9993
2 46504  97.7638 164.0538 0011066  11.2778 348.8696 15.08244606156370
NETSAT-3                
1 46505U 20068V   23217.78720753  .00007719  00000+0  50458-3 0  9998
2 46505  97.7628 163.8901 0010529  21.1977 338.9685 15.08040759156387
NETSAT-1                
1 46506U 20068W   23217.37677463  .00006967  00000+0  46075-3 0  9997
2 46506  97.7641 163.3359 0009393  33.8006 326.3819 15.07656647156316
NETSAT-2                
1 46507U 20068X   23217.08457320  .00007740  00000+0  50456-3 0  9992
2 46507  97.7626 163.1151 0008795  40.4256 319.7624 15.08158671156229
UVSQ-SAT                
1 47438U 21006AB  23217.69746053  .00019794  00000+0  77204-3 0  9992
2 47438  97.3799 274.1339 0007894 262.7436  97.2905 15.25940993140193
SOMP2B                  
1 47445U 21006AJ  23217.38309400  .00020066  00000+0  80209-3 0  9990
2 47445  97.3765 272.9965 0007706 270.2602  89.7753 15.25119419140116
CAS-5A                  
1 54684U 22167C   23217.75882012  .00015212  00000+0  81110-3 0  9997
2 54684  97.5687 355.0505 0013788 160.3525 199.8241 15.15185983 36181
